{"type": "FeatureCollection", "features": [ {"type": "Feature", "properties": {"norad_id": 57401, "name": "TIANMU-1 09", "group": "weather", "lat": 7.771642991929408, "lon": -129.7535612027036, "alt_km": 485.4633572729581, "timestamp": "2025-12-26T09:30:53.270511+00:00", "meta": {"OBJECT_NAME": "TIANMU-1 09", "OBJECT_ID": "2023-101C", "EPOCH": "2025-12-26T04:03:02.222208", "MEAN_MOTION": 15.2827894, "ECCENTRICITY": 0.0006145, "INCLINATION": 97.2802, "RA_OF_ASC_NODE": 49.0242, "ARG_OF_PERICENTER": 46.7611, "MEAN_ANOMALY": 313.4141, "EPHEMERIS_TYPE": 0, "CLASSIFICATION_TYPE": "U", "NORAD_CAT_ID": 57401, "ELEMENT_SET_NO": 999, "REV_AT_EPOCH": 13520, "BSTAR": 0.00028354, "MEAN_MOTION_DOT": 7.743e-05, "MEAN_MOTION_DDOT": 0}, "tle": {"line1": "1 57401U 23101C   25360.16877572  .00007743  00000+0  28354-3 0  9998", "line2": "2 57401  97.2802  49.0242 0006145  46.7611 313.4141 15.28278940135203"}}, "geometry": {"type": "Point", "coordinates": [-129.7535612027036, 7.771642991929408]}}, {"type": "Feature", "properties": {"norad_id": 57402, "name": "TIANMU-1 10", "group": "weather", "lat": -16.55573293662687, "lon": 52.29140705766081, "alt_km": 483.2292367339787, "timestamp": "2025-12-26T09:30:53.270521+00:00", "meta": {"OBJECT_NAME": "TIANMU-1 10", "OBJECT_ID": "2023-101D", "EPOCH": "2025-12-26T04:52:24.125664", "MEAN_MOTION": 15.28271883, "ECCENTRICITY": 0.0007848, "INCLINATION": 97.2882, "RA_OF_ASC_NODE": 49.9218, "ARG_OF_PERICENTER": 43.8521, "MEAN_ANOMALY": 316.3341, "EPHEMERIS_TYPE": 0, "CLASSIFICATION_TYPE": "U", "NORAD_CAT_ID": 57402, "ELEMENT_SET_NO": 999, "REV_AT_EPOCH": 13520, "BSTAR": 0.00027711, "MEAN_MOTION_DOT": 7.567e-05, "MEAN_MOTION_DDOT": 0}, "tle": {"line1": "1 57402U 23101D   25360.20305701  .00007567  00000+0  27711-3 0  9994", "line2": "2 57402  97.2882  49.9218 0007848  43.8521 316.3341 15.28271883135206"}}, "geometry": {"type": "Point", "coordinates": [52.29140705766081, -16.55573293662687]}}, {"type": "Feature", "properties": {"norad_id": 57490, "name": "FENGYUN 3F", "group": "weather", "lat": -30.81734086120925, "lon": 73.71309342304266, "alt_km": 832.1709284191793, "timestamp": "2025-12-26T09:30:53.270534+00:00", "meta": {"OBJECT_NAME": "FENGYUN 3F", "OBJECT_ID": "2023-111A", "EPOCH": "2025-12-26T04:35:16.342368", "MEAN_MOTION": 14.19897037, "ECCENTRICITY": 8.5e-05, "INCLINATION": 98.7065, "RA_OF_ASC_NODE": 68.2665, "ARG_OF_PERICENTER": 118.1147, "MEAN_ANOMALY": 242.0116, "EPHEMERIS_TYPE": 0, "CLASSIFICATION_TYPE": "U", "NORAD_CAT_ID": 57490, "ELEMENT_SET_NO": 999, "REV_AT_EPOCH": 12431, "BSTAR": 5.4582e-05, "MEAN_MOTION_DOT": 7.2e-07, "MEAN_MOTION_DDOT": 0}, "tle": {"line1": "1 57490U 23111A   25360.19116137  .00000072  00000+0  54582-4 0  9994", "line2": "2 57490  98.7065  68.2665 0000850 118.1147 242.0116 14.19897037124317"}}, "geometry": {"type": "Point", "coordinates": [73.71309342304266, -30.81734086120925]}}, {"type": "Feature", "properties": {"norad_id": 58584, "name": "ARKTIKA-M 2", "group": "weather", "lat": 53.66253018867824, "lon": -143.24450504263953, "alt_km": 31487.52067098516, "timestamp": "2025-12-26T09:30:53.270546+00:00", "meta": {"OBJECT_NAME": "ARKTIKA-M 2", "OBJECT_ID": "2023-198A", "EPOCH": "2025-12-25T18:56:09.299328", "MEAN_MOTION": 2.00602256, "ECCENTRICITY": 0.686608, "INCLINATION": 63.2255, "RA_OF_ASC_NODE": 173.4714, "ARG_OF_PERICENTER": 268.0516, "MEAN_ANOMALY": 18.8422, "EPHEMERIS_TYPE": 0, "CLASSIFICATION_TYPE": "U", "NORAD_CAT_ID": 58584, "ELEMENT_SET_NO": 999, "REV_AT_EPOCH": 1484, "BSTAR": 0, "MEAN_MOTION_DOT": 2.31e-06, "MEAN_MOTION_DDOT": 0}, "tle": {"line1": "1 58584U 23198A   25359.78899652  .00000231  00000+0  00000+0 0  9995", "line2": "2 58584  63.2255 173.4714 6866080 268.0516  18.8422  2.00602256 14849"}}, "geometry": {"type": "Point", "coordinates": [-143.24450504263953, 53.66253018867824]}}, {"type": "Feature", "properties": {"norad_id": 58645, "name": "TIANMU-1 11", "group": "weather", "lat": -8.749658147377913, "lon": 20.919782718313265, "alt_km": 496.50797548979244, "timestamp": "2025-12-26T09:30:53.270558+00:00", "meta": {"OBJECT_NAME": "TIANMU-1 11", "OBJECT_ID": "2023-205A", "EPOCH": "2025-12-26T04:49:41.968416", "MEAN_MOTION": 15.24760332, "ECCENTRICITY": 0.0007584, "INCLINATION": 97.3599, "RA_OF_ASC_NODE": 19.588, "ARG_OF_PERICENTER": 252.5766, "MEAN_ANOMALY": 107.4643, "EPHEMERIS_TYPE": 0, "CLASSIFICATION_TYPE": "U", "NORAD_CAT_ID": 58645, "ELEMENT_SET_NO": 999, "REV_AT_EPOCH": 11114, "BSTAR": 0.00026751, "MEAN_MOTION_DOT": 6.562e-05, "MEAN_MOTION_DDOT": 0}, "tle": {"line1": "1 58645U 23205A   25360.20118019  .00006562  00000+0  26751-3 0  9990", "line2": "2 58645  97.3599  19.5880 0007584 252.5766 107.4643 15.24760332111146"}}, "geometry": {"type": "Point", "coordinates": [20.919782718313265, -8.749658147377913]}}, {"type": "Feature", "properties": {"norad_id": 58646, "name": "TIANMU-1 12", "group": "weather", "lat": -17.71311781140172, "lon": -162.78490079126695, "alt_km": 493.37507837934845, "timestamp": "2025-12-26T09:30:53.270569+00:00", "meta": {"OBJECT_NAME": "TIANMU-1 12", "OBJECT_ID": "2023-205B", "EPOCH": "2025-12-26T05:29:58.011360", "MEAN_MOTION": 15.2464776, "ECCENTRICITY": 0.0006066, "INCLINATION": 97.3587, "RA_OF_ASC_NODE": 19.4164, "ARG_OF_PERICENTER": 230.2158, "MEAN_ANOMALY": 129.8546, "EPHEMERIS_TYPE": 0, "CLASSIFICATION_TYPE": "U", "NORAD_CAT_ID": 58646, "ELEMENT_SET_NO": 999, "REV_AT_EPOCH": 11113, "BSTAR": 0.00025795, "MEAN_MOTION_DOT": 6.302e-05, "MEAN_MOTION_DDOT": 0}, "tle": {"line1": "1 58646U 23205B   25360.22914365  .00006302  00000+0  25795-3 0  9990", "line2": "2 58646  97.3587  19.4164 0006066 230.2158 129.8546 15.24647760111138"}}, "geometry": {"type": "Point", "coordinates": [-162.78490079126695, -17.71311781140172]}}, {"type": "Feature", "properties": {"norad_id": 58647, "name": "TIANMU-1 13", "group": "weather", "lat": 15.659568694441875, "lon": 17.71067018555061, "alt_km": 497.0858674168867, "timestamp": "2025-12-26T09:30:53.270579+00:00", "meta": {"OBJECT_NAME": "TIANMU-1 13", "OBJECT_ID": "2023-205C", "EPOCH": "2025-12-26T04:43:13.235808", "MEAN_MOTION": 15.24691114, "ECCENTRICITY": 0.0006753, "INCLINATION": 97.3615, "RA_OF_ASC_NODE": 19.5913, "ARG_OF_PERICENTER": 208.8272, "MEAN_ANOMALY": 151.2593, "EPHEMERIS_TYPE": 0, "CLASSIFICATION_TYPE": "U", "NORAD_CAT_ID": 58647, "ELEMENT_SET_NO": 999, "REV_AT_EPOCH": 11112, "BSTAR": 0.00026993, "MEAN_MOTION_DOT": 6.607e-05, "MEAN_MOTION_DDOT": 0}, "tle": {"line1": "1 58647U 23205C   25360.19668097  .00006607  00000+0  26993-3 0  9994", "line2": "2 58647  97.3615  19.5913 0006753 208.8272 151.2593 15.24691114111127"}}, "geometry": {"type": "Point", "coordinates": [17.71067018555061, 15.659568694441875]}}, {"type": "Feature", "properties": {"norad_id": 58648, "name": "TIANMU-1 14", "group": "weather", "lat": 72.37467400404795, "lon": -136.8878553683459, "alt_km": 486.4081985690882, "timestamp": "2025-12-26T09:30:53.270589+00:00", "meta": {"OBJECT_NAME": "TIANMU-1 14", "OBJECT_ID": "2023-205D", "EPOCH": "2025-12-26T04:19:31.823616", "MEAN_MOTION": 15.24673733, "ECCENTRICITY": 0.0007446, "INCLINATION": 97.3547, "RA_OF_ASC_NODE": 18.9114, "ARG_OF_PERICENTER": 214.9338, "MEAN_ANOMALY": 145.1412, "EPHEMERIS_TYPE": 0, "CLASSIFICATION_TYPE": "U", "NORAD_CAT_ID": 58648, "ELEMENT_SET_NO": 999, "REV_AT_EPOCH": 11112, "BSTAR": 0.00025222, "MEAN_MOTION_DOT": 6.166e-05, "MEAN_MOTION_DDOT": 0}, "tle": {"line1": "1 58648U 23205D   25360.18022944  .00006166  00000+0  25222-3 0  9993", "line2": "2 58648  97.3547  18.9114 0007446 214.9338 145.1412 15.24673733111128"}}, "geometry": {"type": "Point", "coordinates": [-136.8878553683459, 72.37467400404795]}}, {"type": "Feature", "properties": {"norad_id": 58660, "name": "TIANMU-1 19", "group": "weather", "lat": 12.75200058558368, "lon": -66.8971801922112, "alt_km": 479.84900452576585, "timestamp": "2025-12-26T09:30:53.270600+00:00", "meta": {"OBJECT_NAME": "TIANMU-1 19", "OBJECT_ID": "2023-208A", "EPOCH": "2025-12-26T04:04:16.495968", "MEAN_MOTION": 15.28094594, "ECCENTRICITY": 0.0004873, "INCLINATION": 97.4386, "RA_OF_ASC_NODE": 111.182, "ARG_OF_PERICENTER": 196.2996, "MEAN_ANOMALY": 163.8087, "EPHEMERIS_TYPE": 0, "CLASSIFICATION_TYPE": "U", "NORAD_CAT_ID": 58660, "ELEMENT_SET_NO": 999, "REV_AT_EPOCH": 11087, "BSTAR": 0.00035539, "MEAN_MOTION_DOT": 9.667e-05, "MEAN_MOTION_DDOT": 0}, "tle": {"line1": "1 58660U 23208A   25360.16963537  .00009667  00000+0  35539-3 0  9991", "line2": "2 58660  97.4386 111.1820 0004873 196.2996 163.8087 15.28094594110879"}}, "geometry": {"type": "Point", "coordinates": [-66.8971801922112, 12.75200058558368]}}, {"type": "Feature", "properties": {"norad_id": 58661, "name": "TIANMU-1 20", "group": "weather", "lat": -59.44463536906532, "lon": 124.64482326119075, "alt_km": 485.0893839409109, "timestamp": "2025-12-26T09:30:53.270609+00:00", "meta": {"OBJECT_NAME": "TIANMU-1 20", "OBJECT_ID": "2023-208B", "EPOCH": "2025-12-26T03:29:48.027264", "MEAN_MOTION": 15.29283566, "ECCENTRICITY": 0.0006896, "INCLINATION": 97.4324, "RA_OF_ASC_NODE": 111.6188, "ARG_OF_PERICENTER": 210.8443, "MEAN_ANOMALY": 149.2393, "EPHEMERIS_TYPE": 0, "CLASSIFICATION_TYPE": "U", "NORAD_CAT_ID": 58661, "ELEMENT_SET_NO": 999, "REV_AT_EPOCH": 11094, "BSTAR": 0.00035253, "MEAN_MOTION_DOT": 9.948e-05, "MEAN_MOTION_DDOT": 0}, "tle": {"line1": "1 58661U 23208B   25360.14569476  .00009948  00000+0  35253-3 0  9999", "line2": "2 58661  97.4324 111.6188 0006896 210.8443 149.2393 15.29283566110947"}}, "geometry": {"type": "Point", "coordinates": [124.64482326119075, -59.44463536906532]}}]}